{
  "type": "FeatureCollection",
  "features": [
    {
      "type": "Feature",
      "properties": {
        "norad_id": 66753,
        "name": "ICEYE-X60",
        "group": "last-30-days",
        "lat": 37.825881040047705,
        "lon": 66.09553185665204,
        "alt_km": 511.6127470502706,
        "timestamp": "2025-12-26T09:30:52.341711+00:00",
        "meta_object_name": "ICEYE-X60",
        "meta_object_id": "2025-276CR",
        "meta_epoch": "2025-12-26T04:35:55.534272",
        "meta_mean_motion": 15.17412095,
        "meta_eccentricity": 0.0001105,
        "meta_inclination": 97.4402,
        "meta_ra_of_asc_node": 71.7177,
        "meta_arg_of_pericenter": 249.7032,
        "meta_mean_anomaly": 110.4083,
        "meta_ephemeris_type": 0,
        "meta_classification_type": "U",
        "meta_norad_cat_id": 66753,
        "meta_element_set_no": 999,
        "meta_rev_at_epoch": 416,
        "meta_bstar": 0.00024824,
        "meta_mean_motion_dot": 4.896e-05,
        "meta_mean_motion_ddot": 0,
        "tle_line1": "1 66753U 25276CR  25360.19161498  .00004896  00000+0  24824-3 0  9993",
        "tle_line2": "2 66753  97.4402  71.7177 0001105 249.7032 110.4083 15.17412095  4162"
      },
      "geometry": {
        "type": "Point",
        "coordinates": [
          66.09553185665204,
          37.825881040047705
        ]
      }
    },
    {
      "type": "Feature",
      "properties": {
        "norad_id": 66754,
        "name": "ICEYE-X61",
        "group": "last-30-days",
        "lat": 81.55247613226986,
        "lon": 10.310766102240704,
        "alt_km": 504.8988798554501,
        "timestamp": "2025-12-26T09:30:52.341723+00:00",
        "meta_object_name": "ICEYE-X61",
        "meta_object_id": "2025-276CS",
        "meta_epoch": "2025-12-26T02:48:30.019968",
        "meta_mean_motion": 15.17880162,
        "meta_eccentricity": 0.0002575,
        "meta_inclination": 97.4398,
        "meta_ra_of_asc_node": 71.6636,
        "meta_arg_of_pericenter": 180.2404,
        "meta_mean_anomaly": 179.8829,
        "meta_ephemeris_type": 0,
        "meta_classification_type": "U",
        "meta_norad_cat_id": 66754,
        "meta_element_set_no": 999,
        "meta_rev_at_epoch": 415,
        "meta_bstar": 0.0004356,
        "meta_mean_motion_dot": 8.764e-05,
        "meta_mean_motion_ddot": 0,
        "tle_line1": "1 66754U 25276CS  25360.11701412  .00008764  00000+0  43560-3 0  9998",
        "tle_line2": "2 66754  97.4398  71.6636 0002575 180.2404 179.8829 15.17880162  4150"
      },
      "geometry": {
        "type": "Point",
        "coordinates": [
          10.310766102240704,
          81.55247613226986
        ]
      }
    },
    {
      "type": "Feature",
      "properties": {
        "norad_id": 66755,
        "name": "ICEYE-X62",
        "group": "last-30-days",
        "lat": 59.41790309949679,
        "lon": 59.1514223913429,
        "alt_km": 507.88165530940023,
        "timestamp": "2025-12-26T09:30:52.341733+00:00",
        "meta_object_name": "ICEYE-X62",
        "meta_object_id": "2025-276CT",
        "meta_epoch": "2025-12-26T02:55:13.254816",
        "meta_mean_motion": 15.17652779,
        "meta_eccentricity": 0.0001211,
        "meta_inclination": 97.4401,
        "meta_ra_of_asc_node": 71.6566,
        "meta_arg_of_pericenter": 204.8692,
        "meta_mean_anomaly": 155.2483,
        "meta_ephemeris_type": 0,
        "meta_classification_type": "U",
        "meta_norad_cat_id": 66755,
        "meta_element_set_no": 999,
        "meta_rev_at_epoch": 415,
        "meta_bstar": 0.00024728,
        "meta_mean_motion_dot": 4.911e-05,
        "meta_mean_motion_ddot": 0,
        "tle_line1": "1 66755U 25276CT  25360.12168119  .00004911  00000+0  24728-3 0  9996",
        "tle_line2": "2 66755  97.4401  71.6566 0001211 204.8692 155.2483 15.17652779  4151"
      },
      "geometry": {
        "type": "Point",
        "coordinates": [
          59.1514223913429,
          59.41790309949679
        ]
      }
    },
    {
      "type": "Feature",
      "properties": {
        "norad_id": 66756,
        "name": "TRANSPORTER-15CU",
        "group": "last-30-days",
        "lat": 81.92713191722277,
        "lon": -40.9221019977097,
        "alt_km": 503.7839363770454,
        "timestamp": "2025-12-26T09:30:52.341742+00:00",
        "meta_object_name": "TRANSPORTER-15CU",
        "meta_object_id": "2025-276CU",
        "meta_epoch": "2025-12-26T02:46:39.353664",
        "meta_mean_motion": 15.17980462,
        "meta_eccentricity": 0.0001833,
        "meta_inclination": 97.4407,
        "meta_ra_of_asc_node": 71.6691,
        "meta_arg_of_pericenter": 150.3484,
        "meta_mean_anomaly": 209.7854,
        "meta_ephemeris_type": 0,
        "meta_classification_type": "U",
        "meta_norad_cat_id": 66756,
        "meta_element_set_no": 999,
        "meta_rev_at_epoch": 415,
        "meta_bstar": 0.00029284,
        "meta_mean_motion_dot": 5.885e-05,
        "meta_mean_motion_ddot": 0,
        "tle_line1": "1 66756U 25276CU  25360.11573326  .00005885  00000+0  29284-3 0  9999",
        "tle_line2": "2 66756  97.4407  71.6691 0001833 150.3484 209.7854 15.17980462  4151"
      },
      "geometry": {
        "type": "Point",
        "coordinates": [
          -40.9221019977097,
          81.92713191722277
        ]
      }
    },
    {
      "type": "Feature",
      "properties": {
        "norad_id": 66757,
        "name": "TRANSPORTER-15CV",
        "group": "last-30-days",
        "lat": 75.25157639430783,
        "lon": -78.28156682288241,
        "alt_km": 505.1393879605521,
        "timestamp": "2025-12-26T09:30:52.341758+00:00",
        "meta_object_name": "TRANSPORTER-15CV",
        "meta_object_id": "2025-276CV",
        "meta_epoch": "2025-12-26T02:44:13.038720",
        "meta_mean_motion": 15.18305359,
        "meta_eccentricity": 0.0002714,
        "meta_inclination": 97.4409,
        "meta_ra_of_asc_node": 71.6741,
        "meta_arg_of_pericenter": 319.0723,
        "meta_mean_anomaly": 41.0307,
        "meta_ephemeris_type": 0,
        "meta_classification_type": "U",
        "meta_norad_cat_id": 66757,
        "meta_element_set_no": 999,
        "meta_rev_at_epoch": 415,
        "meta_bstar": 0.0066613,
        "meta_mean_motion_dot": 0.00139085,
        "meta_mean_motion_ddot": 0,
        "tle_line1": "1 66757U 25276CV  25360.11403980  .00139085  00000+0  66613-2 0  9994",
        "tle_line2": "2 66757  97.4409  71.6741 0002714 319.0723  41.0307 15.18305359  4156"
      },
      "geometry": {
        "type": "Point",
        "coordinates": [
          -78.28156682288241,
          75.25157639430783
        ]
      }
    },
    {
      "type": "Feature",
      "properties": {
        "norad_id": 66758,
        "name": "TRANSPORTER-15CW",
        "group": "last-30-days",
        "lat": 74.24467334039157,
        "lon": -80.4707944839859,
        "alt_km": 503.5340372930559,
        "timestamp": "2025-12-26T09:30:52.341769+00:00",
        "meta_object_name": "TRANSPORTER-15CW",
        "meta_object_id": "2025-276CW",
        "meta_epoch": "2025-12-26T02:43:51.168288",
        "meta_mean_motion": 15.18113337,
        "meta_eccentricity": 0.0001562,
        "meta_inclination": 97.4386,
        "meta_ra_of_asc_node": 71.6642,
        "meta_arg_of_pericenter": 135.3373,
        "meta_mean_anomaly": 224.7987,
        "meta_ephemeris_type": 0,
        "meta_classification_type": "U",
        "meta_norad_cat_id": 66758,
        "meta_element_set_no": 999,
        "meta_rev_at_epoch": 415,
        "meta_bstar": 0.00032268,
        "meta_mean_motion_dot": 6.516e-05,
        "meta_mean_motion_ddot": 0,
        "tle_line1": "1 66758U 25276CW  25360.11378667  .00006516  00000+0  32268-3 0  9990",
        "tle_line2": "2 66758  97.4386  71.6642 0001562 135.3373 224.7987 15.18113337  4158"
      },
      "geometry": {
        "type": "Point",
        "coordinates": [
          -80.4707944839859,
          74.24467334039157
        ]
      }
    },
    {
      "type": "Feature",
      "properties": {
        "norad_id": 66759,
        "name": "TRANSPORTER-15CX",
        "group": "last-30-days",
        "lat": 64.38770269676456,
        "lon": -92.23430629011729,
        "alt_km": 504.405680988134,
        "timestamp": "2025-12-26T09:30:52.341781+00:00",
        "meta_object_name": "TRANSPORTER-15CX",
        "meta_object_id": "2025-276CX",
        "meta_epoch": "2025-12-26T04:15:58.734432",
        "meta_mean_motion": 15.18207268,
        "meta_eccentricity": 0.0001428,
        "meta_inclination": 97.4397,
        "meta_ra_of_asc_node": 71.7325,
        "meta_arg_of_pericenter": 163.4762,
        "meta_mean_anomaly": 196.6519,
        "meta_ephemeris_type": 0,
        "meta_classification_type": "U",
        "meta_norad_cat_id": 66759,
        "meta_element_set_no": 999,
        "meta_rev_at_epoch": 416,
        "meta_bstar": -0.0022214,
        "meta_mean_motion_dot": -0.00045185,
        "meta_mean_motion_ddot": 0,
        "tle_line1": "1 66759U 25276CX  25360.17776313 -.00045185  00000+0 -22214-2 0  9993",
        "tle_line2": "2 66759  97.4397  71.7325 0001428 163.4762 196.6519 15.18207268  4161"
      },
      "geometry": {
        "type": "Point",
        "coordinates": [
          -92.23430629011729,
          64.38770269676456
        ]
      }
    }
  ]
}